{
    "links": {
        "self": "http://www.neowsapp.com/rest/v1/neo/3838792?api_key=iIulBulltgU6a56xZRHN4H3l9WmuAYTsLGpBGhQ2"
    },
    "id": "3838792",
    "neo_reference_id": "3838792",
    "name": "(2013 HN158)",
    "designation": "2013 HN158",
    "nasa_jpl_url": "http://ssd.jpl.nasa.gov/sbdb.cgi?sstr=3838792",
    "absolute_magnitude_h": 24.533,
    "estimated_diameter": {
        "kilometers": {
            "estimated_diameter_min": 0.0329575543,
            "estimated_diameter_max": 0.0736953318
        },
        "meters": {
            "estimated_diameter_min": 32.9575543246,
            "estimated_diameter_max": 73.6953318419
        },
        "miles": {
            "estimated_diameter_min": 0.0204788685,
            "estimated_diameter_max": 0.045792142
        },
        "feet": {
            "estimated_diameter_min": 108.1284625302,
            "estimated_diameter_max": 241.7825925202
        }
    },
    "is_potentially_hazardous_asteroid": false,
    "close_approach_data": [
        {
            "close_approach_date": "2013-04-08",
            "close_approach_date_full": "2013-Apr-08 03:14",
            "epoch_date_close_approach": 1365390840000,
            "relative_velocity": {
                "kilometers_per_second": "5.7687056714",
                "kilometers_per_hour": "20767.3404169008",
                "miles_per_hour": "12904.0177162681"
            },
            "miss_distance": {
                "astronomical": "0.2635530265",
                "lunar": "102.5221273085",
                "kilometers": "39426971.396453555",
                "miles": "24498784.002046859"
            },
            "orbiting_body": "Earth"
        }
    ],
    "orbital_data": {
        "orbit_id": "1",
        "orbit_determination_date": "2019-02-25 06:45:03",
        "first_observation_date": "2013-04-16",
        "last_observation_date": "2013-04-18",
        "data_arc_in_days": 2,
        "observations_used": 11,
        "orbit_uncertainty": "9",
        "minimum_orbit_intersection": ".261886",
        "jupiter_tisserand_invariant": "2.781",
        "epoch_osculation": "2456399.5",
        "eccentricity": ".6278963255623911",
        "semi_major_axis": "3.387248276989426",
        "inclination": "7.579092352752185",
        "ascending_node_longitude": "29.4998253858482",
        "orbital_period": "2277.031154309915",
        "perihelion_distance": "1.260407530100225",
        "perihelion_argument": "164.576484662966",
        "aphelion_distance": "5.514089023878626",
        "perihelion_time": "2456384.643919940242",
        "mean_anomaly": "2.348755225149179",
        "mean_motion": ".1581006036384701",
        "equinox": "J2000",
        "orbit_class": {
            "orbit_class_type": "AMO",
            "orbit_class_description": "Near-Earth asteroid orbits similar to that of 1221 Amor",
            "orbit_class_range": "1.017 AU < q (perihelion) < 1.3 AU"
        }
    },
    "is_sentry_object": false
}